COMMENT,ORIGINATOR,NORAD_CAT_ID,OBJECT_NAME,OBJECT_TYPE,CLASSIFICATION_TYPE,INTLDES,EPOCH,EPOCH_MICROSECONDS,MEAN_MOTION,ECCENTRICITY,INCLINATION,RA_OF_ASC_NODE,ARG_OF_PERICENTER,MEAN_ANOMALY,EPHEMERIS_TYPE,ELEMENT_SET_NO,REV_AT_EPOCH,BSTAR,MEAN_MOTION_DOT,MEAN_MOTION_DDOT,FILE,TLE_LINE0,TLE_LINE1,TLE_LINE2,OBJECT_ID,OBJECT_NUMBER,SEMIMAJOR_AXIS,PERIOD,APOGEE,PERIGEE,DECAYED
"GENERATED VIA SPACETRACK.ORG API","18 SPCS","48904","SPACEBEE-111","PAYLOAD","U","21059AB","2023-10-02 22:56:24","544032","15.4462556","0.0006402","97.609","58.1348","246.8455","113.2119","0","999","12603","0.0019659","0.00092452","0","4023235","0 SPACEBEE-111","1 48904U 21059AB  23275.95583963  .00092452  00000-0  19659-2 0  9993","2 48904  97.6090  58.1348 0006402 246.8455 113.2119 15.44625560126031","2021-059AB","48904","6810.616","93.226","436.841","428.120","1"
"GENERATED VIA SPACETRACK.ORG API","18 SPCS","48904","SPACEBEE-111","PAYLOAD","U","21059AB","2023-10-03 08:16:07","229568","15.44690541","0.0006366","97.6092","58.5414","244.7908","115.268","0","999","12609","0.0016935","0.00079674","0","4023690","0 SPACEBEE-111","1 48904U 21059AB  23276.34452812  .00079674  00000-0  16935-2 0  9990","2 48904  97.6092  58.5414 0006366 244.7908 115.2680 15.44690541126092","2021-059AB","48904","6810.425","93.223","436.625","427.954","1"
"GENERATED VIA SPACETRACK.ORG API","18 SPCS","48904","SPACEBEE-111","PAYLOAD","U","21059AB","2023-10-03 08:16:07","229568","15.44690541","0.0006366","97.6092","58.5414","244.7908","115.268","0","999","12609","0.0016935","0.00079674","0","4023840","0 SPACEBEE-111","1 48904U 21059AB  23276.34452812  .00079674  00000-0  16935-2 0  9990","2 48904  97.6092  58.5414 0006366 244.7908 115.2680 15.44690541126092","2021-059AB","48904","6810.425","93.223","436.625","427.954","1"
"GENERATED VIA SPACETRACK.ORG API","18 SPCS","48904","SPACEBEE-111","PAYLOAD","U","21059AB","2023-10-03 22:15:38","476224","15.44797504","0.0006251","97.6091","59.1521","244.003","116.0574","0","999","12618","0.0019696","0.00093173","0","4023936","0 SPACEBEE-111","1 48904U 21059AB  23276.92752866  .00093173  00000-0  19696-2 0  9993","2 48904  97.6091  59.1521 0006251 244.0030 116.0574 15.44797504126187","2021-059AB","48904","6810.110","93.216","436.232","427.718","1"
"GENERATED VIA SPACETRACK.ORG API","18 SPCS","48904","SPACEBEE-111","PAYLOAD","U","21059AB","2023-10-03 22:15:38","476224","15.44797504","0.0006251","97.6091","59.1521","244.003","116.0574","0","999","12618","0.0019696","0.00093173","0","4024070","0 SPACEBEE-111","1 48904U 21059AB  23276.92752866  .00093173  00000-0  19696-2 0  9993","2 48904  97.6091  59.1521 0006251 244.0030 116.0574 15.44797504126187","2021-059AB","48904","6810.110","93.216","436.232","427.718","1"
"GENERATED VIA SPACETRACK.ORG API","18 SPCS","48904","SPACEBEE-111","PAYLOAD","U","21059AB","2023-10-04 09:08:33","477792","15.44892023","0.0006237","97.6089","59.6267","241.8547","118.2071","0","999","12625","0.0019716","0.00093572","0","4024487","0 SPACEBEE-111","1 48904U 21059AB  23277.38094303  .00093572  00000-0  19716-2 0  9995","2 48904  97.6089  59.6267 0006237 241.8547 118.2071 15.44892023126254","2021-059AB","48904","6809.832","93.210","435.945","427.450","1"
"GENERATED VIA SPACETRACK.ORG API","18 SPCS","48904","SPACEBEE-111","PAYLOAD","U","21059AB","2023-10-04 15:21:38","180736","15.44941077","0.0006214","97.609","59.8988","242.2834","117.7784","0","999","12629","0.0021592","0.00102775","0","4024616","0 SPACEBEE-111","1 48904U 21059AB  23277.64002524  .00102775  00000-0  21592-2 0  9999","2 48904  97.6090  59.8988 0006214 242.2834 117.7784 15.44941077126290","2021-059AB","48904","6809.688","93.207","435.785","427.322","1"
"GENERATED VIA SPACETRACK.ORG API","18 SPCS","48904","SPACEBEE-111","PAYLOAD","U","21059AB","2023-10-04 21:34:42","59424","15.44997285","0.0006316","97.6089","60.17","242.5835","117.4771","0","999","12633","0.0020806","0.00099176","0","4024820","0 SPACEBEE-111","1 48904U 21059AB  23277.89909791  .00099176  00000-0  20806-2 0  9995","2 48904  97.6089  60.1700 0006316 242.5835 117.4771 15.44997285126332","2021-059AB","48904","6809.523","93.204","435.689","427.087","1"
"GENERATED VIA SPACETRACK.ORG API","18 SPCS","48904","SPACEBEE-111","PAYLOAD","U","21059AB","2023-10-05 08:27:31","996224","15.45097122","0.0006297","97.6088","60.6443","240.8775","119.1843","0","999","12640","0.0022797","0.00109183","0","4025515","0 SPACEBEE-111","1 48904U 21059AB  23278.35245366  .00109183  00000-0  22797-2 0  9999","2 48904  97.6088  60.6443 0006297 240.8775 119.1843 15.45097122126401","2021-059AB","48904","6809.230","93.198","435.382","426.807","1"
"GENERATED VIA SPACETRACK.ORG API","18 SPCS","48904","SPACEBEE-111","PAYLOAD","U","21059AB","2023-10-05 08:27:31","996224","15.45097122","0.0006297","97.6088","60.6443","240.8775","119.1843","0","999","12640","0.0022797","0.00109183","0","4025655","0 SPACEBEE-111","1 48904U 21059AB  23278.35245366  .00109183  00000-0  22797-2 0  9999","2 48904  97.6088  60.6443 0006297 240.8775 119.1843 15.45097122126401","2021-059AB","48904","6809.230","93.198","435.382","426.807","1"
"GENERATED VIA SPACETRACK.ORG API","18 SPCS","48904","SPACEBEE-111","PAYLOAD","U","21059AB","2023-10-05 22:26:49","785216","15.45214049","0.0006208","97.6088","61.2554","239.9386","120.1247","0","999","12649","0.0020679","0.00099298","0","4025843","0 SPACEBEE-111","1 48904U 21059AB  23278.93529844  .00099298  00000-0  20679-2 0  9991","2 48904  97.6088  61.2554 0006208 239.9386 120.1247 15.45214049126498","2021-059AB","48904","6808.886","93.191","434.978","426.524","1"
"GENERATED VIA SPACETRACK.ORG API","18 SPCS","48904","SPACEBEE-111","PAYLOAD","U","21059AB","2023-10-05 22:26:49","785216","15.45214049","0.0006208","97.6088","61.2554","239.9386","120.1247","0","999","12649","0.0020679","0.00099298","0","4025894","0 SPACEBEE-111","1 48904U 21059AB  23278.93529844  .00099298  00000-0  20679-2 0  9991","2 48904  97.6088  61.2554 0006208 239.9386 120.1247 15.45214049126498","2021-059AB","48904","6808.886","93.191","434.978","426.524","1"
"GENERATED VIA SPACETRACK.ORG API","18 SPCS","48904","SPACEBEE-111","PAYLOAD","U","21059AB","2023-10-06 09:19:34","164768","15.45311569","0.0006222","97.6085","61.7298","238.1609","121.9034","0","999","12656","0.0019919","0.00095921","0","4026447","0 SPACEBEE-111","1 48904U 21059AB  23279.38858987  .00095921  00000-0  19919-2 0  9998","2 48904  97.6085  61.7298 0006222 238.1609 121.9034 15.45311569126566","2021-059AB","48904","6808.600","93.185","434.701","426.228","1"
"GENERATED VIA SPACETRACK.ORG API","18 SPCS","48904","SPACEBEE-111","PAYLOAD","U","21059AB","2023-10-07 08:38:10","99968","15.45507267","0.0006171","97.608","62.7477","235.9584","124.1079","0","999","12671","0.0020424","0.00099051","0","4027130","0 SPACEBEE-111","1 48904U 21059AB  23280.35983912  .00099051  00000-0  20424-2 0  9995","2 48904  97.6080  62.7477 0006171 235.9584 124.1079 15.45507267126714","2021-059AB","48904","6808.025","93.173","434.091","425.689","1"
"GENERATED VIA SPACETRACK.ORG API","18 SPCS","48904","SPACEBEE-111","PAYLOAD","U","21059AB","2023-10-07 08:38:10","99968","15.45507267","0.0006171","97.608","62.7477","235.9584","124.1079","0","999","12671","0.0020424","0.00099051","0","4027321","0 SPACEBEE-111","1 48904U 21059AB  23280.35983912  .00099051  00000-0  20424-2 0  9995","2 48904  97.6080  62.7477 0006171 235.9584 124.1079 15.45507267126714","2021-059AB","48904","6808.025","93.173","434.091","425.689","1"
"GENERATED VIA SPACETRACK.ORG API","18 SPCS","48904","SPACEBEE-111","PAYLOAD","U","21059AB","2023-10-07 21:04:01","12800","15.4560614","0.0006076","97.6082","63.2912","236.1571","123.91","0","999","12679","0.002053","0.00099911","0","4027648","0 SPACEBEE-111","1 48904U 21059AB  23280.87778950  .00099911  00000-0  20530-2 0  9999","2 48904  97.6082  63.2912 0006076 236.1571 123.9100 15.45606140126799","2021-059AB","48904","6807.735","93.167","433.736","425.463","1"
"GENERATED VIA SPACETRACK.ORG API","18 SPCS","48904","SPACEBEE-111","PAYLOAD","U","21059AB","2023-10-08 09:29:48","738336","15.45721991","0.0006063","97.6083","63.8336","234.2335","125.835","0","999","12687","0.0021449","0.00104867","0","4028078","0 SPACEBEE-111","1 48904U 21059AB  23281.39570299  .00104867  00000-0  21449-2 0  9990","2 48904  97.6083  63.8336 0006063 234.2335 125.8350 15.45721991126878","2021-059AB","48904","6807.394","93.160","433.387","425.132","1"
"GENERATED VIA SPACETRACK.ORG API","18 SPCS","48904","SPACEBEE-111","PAYLOAD","U","21059AB","2023-10-08 09:29:48","738336","15.45721991","0.0006063","97.6083","63.8336","234.2335","125.835","0","999","12687","0.0021449","0.00104867","0","4028261","0 SPACEBEE-111","1 48904U 21059AB  23281.39570299  .00104867  00000-0  21449-2 0  9990","2 48904  97.6083  63.8336 0006063 234.2335 125.8350 15.45721991126878","2021-059AB","48904","6807.394","93.160","433.387","425.132","1"
"GENERATED VIA SPACETRACK.ORG API","18 SPCS","48904","SPACEBEE-111","PAYLOAD","U","21059AB","2023-10-08 20:22:20","369568","15.45817293","0.0005934","97.6079","64.309","233.3005","126.7699","0","999","12694","0.0021664","0.0010628","0","4028564","0 SPACEBEE-111","1 48904U 21059AB  23281.84884687  .00106280  00000-0  21664-2 0  9999","2 48904  97.6079  64.3090 0005934 233.3005 126.7699 15.45817293126941","2021-059AB","48904","6807.115","93.155","433.019","424.940","1"
"GENERATED VIA SPACETRACK.ORG API","18 SPCS","48904","SPACEBEE-111","PAYLOAD","U","21059AB","2023-10-09 08:48:02","70432","15.45929217","0.000596","97.6082","64.8509","231.8403","128.2309","0","999","12702","0.0021529","0.00106019","0","4029150","0 SPACEBEE-111","1 48904U 21059AB  23282.36669063  .00106019  00000-0  21529-2 0  9996","2 48904  97.6082  64.8509 0005960 231.8403 128.2309 15.45929217127024","2021-059AB","48904","6806.786","93.148","432.708","424.594","1"
